{
  "type": "FeatureCollection",
  "features": [
    {
      "type": "Feature",
      "properties": {
        "norad_id": 41866,
        "name": "GOES 16",
        "group": "weather",
        "lat": -0.039665817052292524,
        "lon": 34.18164575370008,
        "alt_km": 35794.9534363225,
        "timestamp": "2025-12-12T03:50:52.059231+00:00",
        "meta_object_name": "GOES 16",
        "meta_object_id": "2016-071A",
        "meta_epoch": "2025-12-11T13:00:47.924640",
        "meta_mean_motion": 1.0027302,
        "meta_eccentricity": 0.00033503,
        "meta_inclination": 0.0611,
        "meta_ra_of_asc_node": 106.3459,
        "meta_arg_of_pericenter": 157.3595,
        "meta_mean_anomaly": 267.3227,
        "meta_ephemeris_type": 0,
        "meta_classification_type": "U",
        "meta_norad_cat_id": 41866,
        "meta_element_set_no": 999,
        "meta_rev_at_epoch": 3322,
        "meta_bstar": 0,
        "meta_mean_motion_dot": -8.4e-07,
        "meta_mean_motion_ddot": 0,
        "tle_line1": "1 41866U 16071A   25345.54222135 -.00000084  00000+0  00000+0 0  9994",
        "tle_line2": "2 41866   0.0611 106.3459 0003350 157.3595 267.3227  1.00273020 33223"
      },
      "geometry": {
        "type": "Point",
        "coordinates": [
          34.18164575370008,
          -0.039665817052292524
        ]
      }
    },
    {
      "type": "Feature",
      "properties": {
        "norad_id": 41882,
        "name": "FENGYUN 4A",
        "group": "weather",
        "lat": -0.028131210811891707,
        "lon": -97.31122955132876,
        "alt_km": 35769.40377007726,
        "timestamp": "2025-12-12T03:50:52.059243+00:00",
        "meta_object_name": "FENGYUN 4A",
        "meta_object_id": "2016-077A",
        "meta_epoch": "2025-12-11T14:06:04.173984",
        "meta_mean_motion": 1.00270135,
        "meta_eccentricity": 0.00049195,
        "meta_inclination": 1.8465,
        "meta_ra_of_asc_node": 82.3913,
        "meta_arg_of_pericenter": 146.0912,
        "meta_mean_anomaly": 187.417,
        "meta_ephemeris_type": 0,
        "meta_classification_type": "U",
        "meta_norad_cat_id": 41882,
        "meta_element_set_no": 999,
        "meta_rev_at_epoch": 3304,
        "meta_bstar": 0,
        "meta_mean_motion_dot": -3.49e-06,
        "meta_mean_motion_ddot": 0,
        "tle_line1": "1 41882U 16077A   25345.58754831 -.00000349  00000+0  00000+0 0  9999",
        "tle_line2": "2 41882   1.8465  82.3913 0004919 146.0912 187.4170  1.00270135 33048"
      },
      "geometry": {
        "type": "Point",
        "coordinates": [
          -97.31122955132876,
          -0.028131210811891707
        ]
      }
    },
    {
      "type": "Feature",
      "properties": {
        "norad_id": 41884,
        "name": "CYGFM05",
        "group": "weather",
        "lat": 4.9046671127854005,
        "lon": 57.970820197838634,
        "alt_km": 428.586712706453,
        "timestamp": "2025-12-12T03:50:52.059255+00:00",
        "meta_object_name": "CYGFM05",
        "meta_object_id": "2016-078A",
        "meta_epoch": "2025-12-11T12:19:44.236416",
        "meta_mean_motion": 15.47567747,
        "meta_eccentricity": 0.00099326,
        "meta_inclination": 34.9601,
        "meta_ra_of_asc_node": 55.1392,
        "meta_arg_of_pericenter": 172.194,
        "meta_mean_anomaly": 187.8938,
        "meta_ephemeris_type": 0,
        "meta_classification_type": "U",
        "meta_norad_cat_id": 41884,
        "meta_element_set_no": 999,
        "meta_rev_at_epoch": 49957,
        "meta_bstar": 0.00058459472,
        "meta_mean_motion_dot": 0.00031157,
        "meta_mean_motion_ddot": 0,
        "tle_line1": "1 41884U 16078A   25345.51370644  .00031157  00000+0  58459-3 0  9996",
        "tle_line2": "2 41884  34.9601  55.1392 0009932 172.1940 187.8938 15.47567747499573"
      },
      "geometry": {
        "type": "Point",
        "coordinates": [
          57.970820197838634,
          4.9046671127854005
        ]
      }
    },
    {
      "type": "Feature",
      "properties": {
        "norad_id": 41885,
        "name": "CYGFM04",
        "group": "weather",
        "lat": -30.490596042852403,
        "lon": -96.77327595262594,
        "alt_km": 412.5529441991339,
        "timestamp": "2025-12-12T03:50:52.059265+00:00",
        "meta_object_name": "CYGFM04",
        "meta_object_id": "2016-078B",
        "meta_epoch": "2025-12-11T11:21:10.464192",
        "meta_mean_motion": 15.50277122,
        "meta_eccentricity": 0.00092904,
        "meta_inclination": 34.9354,
        "meta_ra_of_asc_node": 30.2184,
        "meta_arg_of_pericenter": 199.3234,
        "meta_mean_anomaly": 160.7137,
        "meta_ephemeris_type": 0,
        "meta_classification_type": "U",
        "meta_norad_cat_id": 41885,
        "meta_element_set_no": 999,
        "meta_rev_at_epoch": 49974,
        "meta_bstar": 0.00063588717,
        "meta_mean_motion_dot": 0.00037316,
        "meta_mean_motion_ddot": 0,
        "tle_line1": "1 41885U 16078B   25345.47303778  .00037316  00000+0  63589-3 0  9999",
        "tle_line2": "2 41885  34.9354  30.2184 0009290 199.3234 160.7137 15.50277122499745"
      },
      "geometry": {
        "type": "Point",
        "coordinates": [
          -96.77327595262594,
          -30.490596042852403
        ]
      }
    },
    {
      "type": "Feature",
      "properties": {
        "norad_id": 41886,
        "name": "CYGFM02",
        "group": "weather",
        "lat": -33.11403851941625,
        "lon": -86.87467492320486,
        "alt_km": 408.69506571333295,
        "timestamp": "2025-12-12T03:50:52.059277+00:00",
        "meta_object_name": "CYGFM02",
        "meta_object_id": "2016-078C",
        "meta_epoch": "2025-12-11T11:19:26.384160",
        "meta_mean_motion": 15.51650862,
        "meta_eccentricity": 0.00109769,
        "meta_inclination": 34.9444,
        "meta_ra_of_asc_node": 28.569,
        "meta_arg_of_pericenter": 198.8221,
        "meta_mean_anomaly": 161.2096,
        "meta_ephemeris_type": 0,
        "meta_classification_type": "U",
        "meta_norad_cat_id": 41886,
        "meta_element_set_no": 999,
        "meta_rev_at_epoch": 49987,
        "meta_bstar": 0.00064646241,
        "meta_mean_motion_dot": 0.00039891,
        "meta_mean_motion_ddot": 0,
        "tle_line1": "1 41886U 16078C   25345.47183315  .00039891  00000+0  64646-3 0  9998",
        "tle_line2": "2 41886  34.9444  28.5690 0010976 198.8221 161.2096 15.51650862499872"
      },
      "geometry": {
        "type": "Point",
        "coordinates": [
          -86.87467492320486,
          -33.11403851941625
        ]
      }
    },
    {
      "type": "Feature",
      "properties": {
        "norad_id": 41887,
        "name": "CYGFM01",
        "group": "weather",
        "lat": 26.626113294505473,
        "lon": 99.15958340979944,
        "alt_km": 420.0149638028215,
        "timestamp": "2025-12-12T03:50:52.059288+00:00",
        "meta_object_name": "CYGFM01",
        "meta_object_id": "2016-078D",
        "meta_epoch": "2025-12-11T13:41:51.421056",
        "meta_mean_motion": 15.48144651,
        "meta_eccentricity": 0.00094971,
        "meta_inclination": 34.9432,
        "meta_ra_of_asc_node": 57.1248,
        "meta_arg_of_pericenter": 164.4274,
        "meta_mean_anomaly": 195.6741,
        "meta_ephemeris_type": 0,
        "meta_classification_type": "U",
        "meta_norad_cat_id": 41887,
        "meta_element_set_no": 999,
        "meta_rev_at_epoch": 49952,
        "meta_bstar": 0.00049978475,
        "meta_mean_motion_dot": 0.00027156,
        "meta_mean_motion_ddot": 0,
        "tle_line1": "1 41887U 16078D   25345.57073404  .00027156  00000+0  49978-3 0  9999",
        "tle_line2": "2 41887  34.9432  57.1248 0009497 164.4274 195.6741 15.48144651499520"
      },
      "geometry": {
        "type": "Point",
        "coordinates": [
          99.15958340979944,
          26.626113294505473
        ]
      }
    },
    {
      "type": "Feature",
      "properties": {
        "norad_id": 41888,
        "name": "CYGFM08",
        "group": "weather",
        "lat": 34.591119998726285,
        "lon": 135.31573427537558,
        "alt_km": 412.98938833159536,
        "timestamp": "2025-12-12T03:50:52.059299+00:00",
        "meta_object_name": "CYGFM08",
        "meta_object_id": "2016-078E",
        "meta_epoch": "2025-12-11T11:57:53.666784",
        "meta_mean_motion": 15.49345459,
        "meta_eccentricity": 0.00113806,
        "meta_inclination": 34.9463,
        "meta_ra_of_asc_node": 40.6034,
        "meta_arg_of_pericenter": 187.8178,
        "meta_mean_anomaly": 172.2368,
        "meta_ephemeris_type": 0,
        "meta_classification_type": "U",
        "meta_norad_cat_id": 41888,
        "meta_element_set_no": 999,
        "meta_rev_at_epoch": 49974,
        "meta_bstar": 0.00063122143,
        "meta_mean_motion_dot": 0.00035861,
        "meta_mean_motion_ddot": 0,
        "tle_line1": "1 41888U 16078E   25345.49853781  .00035861  00000+0  63122-3 0  9994",
        "tle_line2": "2 41888  34.9463  40.6034 0011380 187.8178 172.2368 15.49345459499741"
      },
      "geometry": {
        "type": "Point",
        "coordinates": [
          135.31573427537558,
          34.591119998726285
        ]
      }
    }
  ]
}